{
    "CCSDS_OMM_VERS": "3.0",
    "COMMENT": "GENERATED VIA SPACE-TRACK.ORG API",
    "CREATION_DATE": "2025-11-23T21:08:43",
    "ORIGINATOR": "18 SPCS",
    "OBJECT_NAME": "GALILEO 26 (2C2)",
    "OBJECT_ID": "2018-060B",
    "CENTER_NAME": "EARTH",
    "REF_FRAME": "TEME",
    "TIME_SYSTEM": "UTC",
    "MEAN_ELEMENT_THEORY": "SGP4",
    "EPOCH": "2025-11-22T19:20:58.122528",
    "MEAN_MOTION": "1.70475804",
    "ECCENTRICITY": "0.00061285",
    "INCLINATION": "57.2360",
    "RA_OF_ASC_NODE": "347.3598",
    "ARG_OF_PERICENTER": "257.6185",
    "MEAN_ANOMALY": "102.3592",
    "EPHEMERIS_TYPE": "0",
    "CLASSIFICATION_TYPE": "U",
    "NORAD_CAT_ID": "43565",
    "ELEMENT_SET_NO": "999",
    "REV_AT_EPOCH": "4569",
    "BSTAR": "0.00000000000000",
    "MEAN_MOTION_DOT": "-0.00000066",
    "MEAN_MOTION_DDOT": "0.0000000000000",
    "SEMIMAJOR_AXIS": "29600.111",
    "PERIOD": "844.695",
    "APOAPSIS": "23240.117",
    "PERIAPSIS": "23203.836",
    "OBJECT_TYPE": "PAYLOAD",
    "RCS_SIZE": "LARGE",
    "COUNTRY_CODE": "ESA",
    "LAUNCH_DATE": "2018-07-25",
    "SITE": "FRGUI",
    "DECAY_DATE": null,
    "FILE": "4896238",
    "GP_ID": "303333684",
    "TLE_LINE0": "0 GALILEO 26 (2C2)",
    "TLE_LINE1": "1 43565U 18060B   25326.80622827 -.00000066  00000-0  00000-0 0  9994",
    "TLE_LINE2": "2 43565  57.2360 347.3598 0006128 257.6185 102.3592  1.70475804 45690"
}